start=new Date('2023-01-05T00:00:00.000Z').valueOf();
sats=[{"COUNTRY_CODE":"US","RA_OF_ASC_NODE":"289.8070","REV_AT_EPOCH":"8884","REF_FRAME":"TEME","CENTER_NAME":"EARTH","GP_ID":"222158845","TLE_LINE2":"2 48656  53.0543 289.8070 0002254  43.4697 316.6470 15.06405989 88843","SITE":"AFETR","MEAN_MOTION":"15.06405989","MEAN_MOTION_DDOT":"0.0000000000000","FILE":"3731823","OBJECT_ID":"2021-044U","PERIAPSIS":"545.634","LAUNCH_DATE":"2021-05-26","INCLINATION":"53.0543","EPOCH":"2023-01-04T12:38:11.601024","MEAN_ELEMENT_THEORY":"SGP4","TIME_SYSTEM":"UTC","OBJECT_NAME":"STARLINK-2701","ECCENTRICITY":"0.00022540","OBJECT_TYPE":"PAYLOAD","SEMIMAJOR_AXIS":"6925.330","ARG_OF_PERICENTER":"43.4697","TLE_LINE1":"1 48656U 21044U   23004.52652316  .00006792  00000-0  47438-3 0  9992","APOAPSIS":"548.756","RCS_SIZE":"LARGE","CLASSIFICATION_TYPE":"U","DECAY_DATE":null,"NORAD_CAT_ID":"48656","ELEMENT_SET_NO":"999","EPHEMERIS_TYPE":"0","BSTAR":"0.00047438000000","MEAN_ANOMALY":"316.6470","PERIOD":"95.592","MEAN_MOTION_DOT":"0.00006792"},{"TLE_LINE1":"1 48657U 21044V   23004.52284444  .00006101  00000-0  42796-3 0  9992","APOAPSIS":"548.204","RCS_SIZE":"LARGE","OBJECT_NAME":"STARLINK-2734","ECCENTRICITY":"0.00014830","ARG_OF_PERICENTER":"82.9494","SEMIMAJOR_AXIS":"6925.312","OBJECT_TYPE":"PAYLOAD","MEAN_ANOMALY":"277.1664","BSTAR":"0.00042796000000","EPHEMERIS_TYPE":"0","MEAN_MOTION_DOT":"0.00006101","PERIOD":"95.591","CLASSIFICATION_TYPE":"U","DECAY_DATE":null,"NORAD_CAT_ID":"48657","ELEMENT_SET_NO":"999","CENTER_NAME":"EARTH","GP_ID":"222157600","TLE_LINE2":"2 48657  53.0539 289.8131 0001483  82.9494 277.1664 15.06412089 88848","SITE":"AFETR","COUNTRY_CODE":"US","RA_OF_ASC_NODE":"289.8131","REV_AT_EPOCH":"8884","REF_FRAME":"TEME","TIME_SYSTEM":"UTC","LAUNCH_DATE":"2021-05-26","MEAN_ELEMENT_THEORY":"SGP4","INCLINATION":"53.0539","EPOCH":"2023-01-04T12:32:53.759616","MEAN_MOTION_DDOT":"0.0000000000000","FILE":"3731823","MEAN_MOTION":"15.06412089","PERIAPSIS":"546.149","OBJECT_ID":"2021-044V"},{"MEAN_MOTION":"15.06402780","MEAN_MOTION_DDOT":"0.0000000000000","FILE":"3731823","OBJECT_ID":"2021-044W","PERIAPSIS":"545.858","LAUNCH_DATE":"2021-05-26","EPOCH":"2023-01-04T12:27:35.411904","INCLINATION":"53.0546","MEAN_ELEMENT_THEORY":"SGP4","TIME_SYSTEM":"UTC","COUNTRY_CODE":"US","REF_FRAME":"TEME","RA_OF_ASC_NODE":"289.8292","REV_AT_EPOCH":"8884","GP_ID":"222157850","CENTER_NAME":"EARTH","SITE":"AFETR","TLE_LINE2":"2 48658  53.0546 289.8292 0001945  48.0440 312.0715 15.06402780 88845","DECAY_DATE":null,"CLASSIFICATION_TYPE":"U","ELEMENT_SET_NO":"999","NORAD_CAT_ID":"48658","BSTAR":"0.00022246000000","EPHEMERIS_TYPE":"0","MEAN_ANOMALY":"312.0715","PERIOD":"95.592","MEAN_MOTION_DOT":"0.00003034","OBJECT_NAME":"STARLINK-2647","ECCENTRICITY":"0.00019450","OBJECT_TYPE":"PAYLOAD","ARG_OF_PERICENTER":"48.0440","SEMIMAJOR_AXIS":"6925.340","APOAPSIS":"548.552","TLE_LINE1":"1 48658U 21044W   23004.51915986  .00003034  00000-0  22246-3 0  9994","RCS_SIZE":"LARGE"},{"ELEMENT_SET_NO":"999","NORAD_CAT_ID":"48659","DECAY_DATE":null,"CLASSIFICATION_TYPE":"U","MEAN_MOTION_DOT":"0.00003493","PERIOD":"95.592","MEAN_ANOMALY":"305.3861","EPHEMERIS_TYPE":"0","BSTAR":"0.00025326000000","SEMIMAJOR_AXIS":"6925.341","ARG_OF_PERICENTER":"54.7280","OBJECT_TYPE":"PAYLOAD","OBJECT_NAME":"STARLINK-2717","ECCENTRICITY":"0.00016230","RCS_SIZE":"LARGE","APOAPSIS":"548.330","TLE_LINE1":"1 48659U 21044X   23004.51547197  .00003493  00000-0  25326-3 0  9991","PERIAPSIS":"546.082","OBJECT_ID":"2021-044X","FILE":"3731823","MEAN_MOTION_DDOT":"0.0000000000000","MEAN_MOTION":"15.06402462","TIME_SYSTEM":"UTC","INCLINATION":"53.0520","LAUNCH_DATE":"2021-05-26","MEAN_ELEMENT_THEORY":"SGP4","EPOCH":"2023-01-04T12:22:16.778208","REF_FRAME":"TEME","RA_OF_ASC_NODE":"289.8528","REV_AT_EPOCH":"8884","COUNTRY_CODE":"US","SITE":"AFETR","TLE_LINE2":"2 48659  53.0520 289.8528 0001623  54.7280 305.3861 15.06402462 88843","GP_ID":"222159102","CENTER_NAME":"EARTH"},{"RCS_SIZE":"LARGE","APOAPSIS":"548.411","TLE_LINE1":"1 48660U 21044Y   23004.51177991  .00002684  00000-0  19896-3 0  9990","OBJECT_TYPE":"PAYLOAD","SEMIMAJOR_AXIS":"6925.320","ARG_OF_PERICENTER":"138.8260","OBJECT_NAME":"STARLINK-2688","ECCENTRICITY":"0.00017700","PERIOD":"95.592","MEAN_MOTION_DOT":"0.00002684","EPHEMERIS_TYPE":"0","BSTAR":"0.00019896000000","MEAN_ANOMALY":"221.2863","ELEMENT_SET_NO":"999","NORAD_CAT_ID":"48660","DECAY_DATE":null,"CLASSIFICATION_TYPE":"U","SITE":"AFETR","TLE_LINE2":"2 48660  53.0530 289.8650 0001770 138.8260 221.2863 15.06409206 88848","GP_ID":"222159346","CENTER_NAME":"EARTH","REF_FRAME":"TEME","REV_AT_EPOCH":"8884","RA_OF_ASC_NODE":"289.8650","COUNTRY_CODE":"US","LAUNCH_DATE":"2021-05-26","INCLINATION":"53.0530","MEAN_ELEMENT_THEORY":"SGP4","EPOCH":"2023-01-04T12:16:57.784224","TIME_SYSTEM":"UTC","OBJECT_ID":"2021-044Y","PERIAPSIS":"545.960","MEAN_MOTION":"15.06409206","MEAN_MOTION_DDOT":"0.0000000000000","FILE":"3731823"},{"MEAN_MOTION":"15.06416711","FILE":"3731823","MEAN_MOTION_DDOT":"0.0000000000000","OBJECT_ID":"2021-044Z","PERIAPSIS":"546.268","INCLINATION":"53.0563","LAUNCH_DATE":"2021-05-26","MEAN_ELEMENT_THEORY":"SGP4","EPOCH":"2023-01-04T04:20:35.986848","TIME_SYSTEM":"UTC","COUNTRY_CODE":"US","REF_FRAME":"TEME","REV_AT_EPOCH":"8893","RA_OF_ASC_NODE":"281.3385","GP_ID":"222158101","CENTER_NAME":"EARTH","SITE":"AFETR","TLE_LINE2":"2 48661  53.0563 281.3385 0001292  98.9232 261.1903 15.06416711 88938","DECAY_DATE":null,"CLASSIFICATION_TYPE":"U","ELEMENT_SET_NO":"999","NORAD_CAT_ID":"48661","BSTAR":"0.00087062000000","EPHEMERIS_TYPE":"0","MEAN_ANOMALY":"261.1903","PERIOD":"95.591","MEAN_MOTION_DOT":"0.00012716","ECCENTRICITY":"0.00012920","OBJECT_NAME":"STARLINK-2708","OBJECT_TYPE":"PAYLOAD","SEMIMAJOR_AXIS":"6925.297","ARG_OF_PERICENTER":"98.9232","APOAPSIS":"548.057","TLE_LINE1":"1 48661U 21044Z   23004.18097207  .00012716  00000-0  87062-3 0  9992","RCS_SIZE":"LARGE"},{"ECCENTRICITY":"0.00015850","OBJECT_NAME":"STARLINK-2726","ARG_OF_PERICENTER":"66.9227","SEMIMAJOR_AXIS":"6925.278","OBJECT_TYPE":"PAYLOAD","APOAPSIS":"548.241","TLE_LINE1":"1 48662U 21044AA  23004.57537097  .00022519  00000-0  15249-2 0  9991","RCS_SIZE":"LARGE","DECAY_DATE":null,"CLASSIFICATION_TYPE":"U","ELEMENT_SET_NO":"999","NORAD_CAT_ID":"48662","MEAN_ANOMALY":"293.1929","BSTAR":"0.00152490000000","EPHEMERIS_TYPE":"0","MEAN_MOTION_DOT":"0.00022519","PERIOD":"95.591","COUNTRY_CODE":"US","REF_FRAME":"TEME","REV_AT_EPOCH":"8983","RA_OF_ASC_NODE":"279.5839","GP_ID":"222191753","CENTER_NAME":"EARTH","SITE":"AFETR","TLE_LINE2":"2 48662  53.0539 279.5839 0001585  66.9227 293.1929 15.06423032 89836","MEAN_MOTION_DDOT":"0.0000000000000","FILE":"3731947","MEAN_MOTION":"15.06423032","PERIAPSIS":"546.045","OBJECT_ID":"2021-044AA","TIME_SYSTEM":"UTC","INCLINATION":"53.0539","LAUNCH_DATE":"2021-05-26","EPOCH":"2023-01-04T13:48:32.051808","MEAN_ELEMENT_THEORY":"SGP4"},{"PERIOD":"95.593","MEAN_MOTION_DOT":"-0.00000289","EPHEMERIS_TYPE":"0","BSTAR":"-0.00000051085000","MEAN_ANOMALY":"292.6577","NORAD_CAT_ID":"48663","ELEMENT_SET_NO":"999","CLASSIFICATION_TYPE":"U","DECAY_DATE":null,"RCS_SIZE":"LARGE","TLE_LINE1":"1 48663U 21044AB  23004.04091241 -.00000289  00000-0 -51085-6 0  9994","APOAPSIS":"548.390","OBJECT_TYPE":"PAYLOAD","SEMIMAJOR_AXIS":"6925.373","ARG_OF_PERICENTER":"67.4588","OBJECT_NAME":"STARLINK-2667","ECCENTRICITY":"0.00016630","LAUNCH_DATE":"2021-05-26","INCLINATION":"53.0555","EPOCH":"2023-01-04T00:58:54.832224","MEAN_ELEMENT_THEORY":"SGP4","TIME_SYSTEM":"UTC","OBJECT_ID":"2021-044AB","PERIAPSIS":"546.087","MEAN_MOTION":"15.06391936","FILE":"3731823","MEAN_MOTION_DDOT":"0.0000000000000","TLE_LINE2":"2 48663  53.0555 281.9823 0001663  67.4588 292.6577 15.06391936 88916","SITE":"AFETR","CENTER_NAME":"EARTH","GP_ID":"222158602","RA_OF_ASC_NODE":"281.9823","REV_AT_EPOCH":"8891","REF_FRAME":"TEME","COUNTRY_CODE":"US"},{"MEAN_MOTION":"15.06409988","MEAN_MOTION_DDOT":"0.0000000000000","FILE":"3731823","OBJECT_ID":"2021-044AC","PERIAPSIS":"545.650","EPOCH":"2023-01-04T04:04:40.592064","LAUNCH_DATE":"2021-05-26","INCLINATION":"53.0558","MEAN_ELEMENT_THEORY":"SGP4","TIME_SYSTEM":"UTC","COUNTRY_CODE":"US","REF_FRAME":"TEME","REV_AT_EPOCH":"8893","RA_OF_ASC_NODE":"281.4042","GP_ID":"222158846","CENTER_NAME":"EARTH","SITE":"AFETR","TLE_LINE2":"2 48664  53.0558 281.4042 0002214  57.2588 302.8614 15.06409988 88933","DECAY_DATE":null,"CLASSIFICATION_TYPE":"U","ELEMENT_SET_NO":"999","NORAD_CAT_ID":"48664","BSTAR":"0.00037652000000","EPHEMERIS_TYPE":"0","MEAN_ANOMALY":"302.8614","PERIOD":"95.592","MEAN_MOTION_DOT":"0.00005332","OBJECT_NAME":"STARLINK-2709","ECCENTRICITY":"0.00022140","OBJECT_TYPE":"PAYLOAD","ARG_OF_PERICENTER":"57.2588","SEMIMAJOR_AXIS":"6925.318","APOAPSIS":"548.716","TLE_LINE1":"1 48664U 21044AC  23004.16991426  .00005332  00000-0  37652-3 0  9995","RCS_SIZE":"LARGE"},{"MEAN_ELEMENT_THEORY":"SGP4","LAUNCH_DATE":"2021-05-26","INCLINATION":"53.0557","EPOCH":"2023-01-04T10:46:42.867264","TIME_SYSTEM":"UTC","MEAN_MOTION":"15.06405410","MEAN_MOTION_DDOT":"0.0000000000000","FILE":"3731823","OBJECT_ID":"2021-044AD","PERIAPSIS":"546.031","GP_ID":"222157601","CENTER_NAME":"EARTH","SITE":"AFETR","TLE_LINE2":"2 48665  53.0557 280.1389 0001684  53.1161 306.9982 15.06405410 88978","COUNTRY_CODE":"US","REF_FRAME":"TEME","RA_OF_ASC_NODE":"280.1389","REV_AT_EPOCH":"8897","EPHEMERIS_TYPE":"0","BSTAR":"0.00086050000000","MEAN_ANOMALY":"306.9982","PERIOD":"95.592","MEAN_MOTION_DOT":"0.00012561","DECAY_DATE":null,"CLASSIFICATION_TYPE":"U","ELEMENT_SET_NO":"999","NORAD_CAT_ID":"48665","APOAPSIS":"548.363","TLE_LINE1":"1 48665U 21044AD  23004.44910726  .00012561  00000-0  86050-3 0  9999","RCS_SIZE":"LARGE","OBJECT_NAME":"STARLINK-2653","ECCENTRICITY":"0.00016840","OBJECT_TYPE":"PAYLOAD","SEMIMAJOR_AXIS":"6925.332","ARG_OF_PERICENTER":"53.1161"}];
